CORVUS BC2              
1 42846U 17042X   18148.28544567  .00000263  00000-0  31385-4 0  9996
2 42846  97.5992  51.8756 0008096 262.2064  97.8236 14.91811541 47409
CORVUS BC1              
1 42847U 17042Y   18147.72787488  .00000157  00000-0  20901-4 0  9990
2 42847  97.5994  51.3844 0007691 264.0107  96.0235 14.91910085 47316
SILU-1 (SILKROAD 1)     
1 42903U 17021F   18148.55731481  .00018043  00000-0  14342-3 0  9998
2 42903  42.7775  87.0524 0010873 170.2877 178.9395 15.70820976 46837
MIRATA                  
1 43015U 17073C   18148.05117727  .00001303  00000-0  10866-3 0  9994
2 43015  97.7040  79.9133 0257908 337.4525  21.5513 14.78094884 28161
ASTERIA                 
1 43020U 98067NH  18148.27389007  .00006181  00000-0  84848-4 0  9999
2 43020  51.6405 114.3485 0003406  88.3088 271.8295 15.58814177 29389
DELLINGR (RBLE)         
1 43021U 98067NJ  18148.49555550  .00005075  00000-0  74899-4 0  9998
2 43021  51.6381 114.3098 0003163  84.9457 275.1896 15.57282706 29408
TECHEDSAT 6             
1 43026U 98067NK  18135.04917276  .24108771  12366-4  25107-2 0  9998
2 43026  51.6059 164.5237 0004943 311.1143  50.3672 16.36895032 27437
OSIRIS-3U               
1 43027U 98067NL  18148.14977663  .00020426  00000-0  22330-3 0  9998
2 43027  51.6368 111.9910 0004930  69.3433 290.8090 15.63287141 29280
AEROCUBE 7B             
1 43042U 17071F   18147.92276274  .00002952  00000-0  86071-4 0  9993
2 43042  51.6375 140.2287 0004859 184.5849 175.5092 15.38737429 26489
AEROCUBE 7C             
1 43043U 17071G   18147.92275985  .00002480  00000-0  73978-4 0  9990
2 43043  51.6379 140.2325 0004851 187.6846 172.4065 15.38733313 26451
CHEFSAT                 
1 43044U 17071H   18147.94275935  .00002909  00000-0  82903-4 0  9992
2 43044  51.6386 139.6311 0004662 188.0707 172.0203 15.39527854 26461
ASGARDIA 1              
1 43049U 17071N   18148.55469388  .00002141  00000-0  64945-4 0  9996
2 43049  51.6380 136.9574 0002146 206.4199 153.6676 15.38873228 26542
ISARA                   
1 43050U 17071P   18148.33248881  .00003234  00000-0  91326-4 0  9994
2 43050  51.6377 137.7323 0001960 201.2469 158.8434 15.39412191 26512
FAUNA                   
1 43052U 17071R   18147.89550458  .00002143  00000-0  64751-4 0  9992
2 43052  51.6380 140.0628 0002108 198.3931 161.6977 15.38994474 26442
CORVUS BC3              
1 43118U 18004H   18148.48721223  .00000708  00000-0  33913-4 0  9999
2 43118  97.5345 211.0370 0011319 156.0276 204.1489 15.22212726 20716
MICROMAS-2A             
1 43131U 18004W   18147.79712217  .00001599  00000-0  71603-4 0  9997
2 43131  97.5353 210.4315 0010433 160.5608 199.6028 15.22724845 20613
GOMX4-B                 
1 43196U 18015E   18147.91456393  .00000351  00000-0  17577-4 0  9999
2 43196  97.3436 277.2687 0017796 224.9497 135.0296 15.23541978 17440
GOMX4-A                 
1 43197U 18015F   18148.32267370  .00000376  00000-0  18561-4 0  9992
2 43197  97.3430 277.6695 0018122 225.2067 218.6675 15.23637279 17516
UBAKUSAT                
1 43466U 98067NP  18148.34765571  .00008437  00000-0  12940-3 0  9994
2 43466  51.6398 117.4912 0001670  87.6818  65.4713 15.55210659  2618
1KUNS-PF                
1 43467U 98067NQ  18148.53066153  .00005943  00000-0  93210-4 0  9995
2 43467  51.6404 116.5702 0003712  66.1801  35.3649 15.55227745  2648
IRAZU                   
1 43468U 98067NR  18148.12693717  .00010090  00000-0  15290-3 0  9993
2 43468  51.6415 118.5875 0001575  70.3765 289.7390 15.55290781102565
